{
  "type": "FeatureCollection",
  "features": [
    {
      "type": "Feature",
      "properties": {
        "norad_id": 32320,
        "name": "FENGYUN 1C DEB",
        "group": "fengyun-1c-debris",
        "lat": 4.879447900648306,
        "lon": -139.05647237090778,
        "alt_km": 733.0073094338413,
        "timestamp": "2025-12-27T17:24:57.691714+00:00",
        "meta_object_name": "FENGYUN 1C DEB",
        "meta_object_id": "1999-025CXM",
        "meta_epoch": "2025-12-22T13:40:01.485696",
        "meta_mean_motion": 14.36184874,
        "meta_eccentricity": 0.00563271,
        "meta_inclination": 100.3743,
        "meta_ra_of_asc_node": 215.6434,
        "meta_arg_of_pericenter": 20.562,
        "meta_mean_anomaly": 339.7809,
        "meta_ephemeris_type": 0,
        "meta_classification_type": "U",
        "meta_norad_cat_id": 32320,
        "meta_element_set_no": 999,
        "meta_rev_at_epoch": 62314,
        "meta_bstar": 0.00080066541,
        "meta_mean_motion_dot": 2.318e-05,
        "meta_mean_motion_ddot": 0,
        "tle_line1": "1 32320U 99025CXM 25356.56946164  .00002318  00000+0  80067-3 0  9994",
        "tle_line2": "2 32320 100.3743 215.6434 0056327  20.5620 339.7809 14.36184874623144"
      },
      "geometry": {
        "type": "Point",
        "coordinates": [
          -139.05647237090778,
          4.879447900648306
        ]
      }
    },
    {
      "type": "Feature",
      "properties": {
        "norad_id": 32322,
        "name": "FENGYUN 1C DEB",
        "group": "fengyun-1c-debris",
        "lat": -10.312539467069174,
        "lon": -117.31697008117507,
        "alt_km": 1016.6724180448682,
        "timestamp": "2025-12-27T17:24:57.691724+00:00",
        "meta_object_name": "FENGYUN 1C DEB",
        "meta_object_id": "1999-025CXP",
        "meta_epoch": "2025-12-21T10:17:00.184704",
        "meta_mean_motion": 13.34155768,
        "meta_eccentricity": 0.04195743,
        "meta_inclination": 98.3703,
        "meta_ra_of_asc_node": 235.9789,
        "meta_arg_of_pericenter": 75.736,
        "meta_mean_anomaly": 288.998,
        "meta_ephemeris_type": 0,
        "meta_classification_type": "U",
        "meta_norad_cat_id": 32322,
        "meta_element_set_no": 999,
        "meta_rev_at_epoch": 60495,
        "meta_bstar": 0.0012702386,
        "meta_mean_motion_dot": 1.01e-05,
        "meta_mean_motion_ddot": 0,
        "tle_line1": "1 32322U 99025CXP 25355.42847436  .00001010  00000+0  12702-2 0  9990",
        "tle_line2": "2 32322  98.3703 235.9789 0419574  75.7360 288.9980 13.34155768604956"
      },
      "geometry": {
        "type": "Point",
        "coordinates": [
          -117.31697008117507,
          -10.312539467069174
        ]
      }
    },
    {
      "type": "Feature",
      "properties": {
        "norad_id": 32323,
        "name": "FENGYUN 1C DEB",
        "group": "fengyun-1c-debris",
        "lat": -39.17949320004996,
        "lon": 150.96617488073076,
        "alt_km": 1011.7262265206436,
        "timestamp": "2025-12-27T17:24:57.691736+00:00",
        "meta_object_name": "FENGYUN 1C DEB",
        "meta_object_id": "1999-025CXQ",
        "meta_epoch": "2025-12-19T15:19:13.533312",
        "meta_mean_motion": 13.96612746,
        "meta_eccentricity": 0.015623,
        "meta_inclination": 98.5704,
        "meta_ra_of_asc_node": 136.3682,
        "meta_arg_of_pericenter": 190.9743,
        "meta_mean_anomaly": 168.7999,
        "meta_ephemeris_type": 0,
        "meta_classification_type": "U",
        "meta_norad_cat_id": 32323,
        "meta_element_set_no": 999,
        "meta_rev_at_epoch": 60366,
        "meta_bstar": 0.0022503,
        "meta_mean_motion_dot": 3.415e-05,
        "meta_mean_motion_ddot": 0,
        "tle_line1": "1 32323U 99025CXQ 25353.63835108  .00003415  00000+0  22503-2 0  9996",
        "tle_line2": "2 32323  98.5704 136.3682 0156230 190.9743 168.7999 13.96612746603662"
      },
      "geometry": {
        "type": "Point",
        "coordinates": [
          150.96617488073076,
          -39.17949320004996
        ]
      }
    },
    {
      "type": "Feature",
      "properties": {
        "norad_id": 32324,
        "name": "FENGYUN 1C DEB",
        "group": "fengyun-1c-debris",
        "lat": 78.03075306631276,
        "lon": -23.229264896407148,
        "alt_km": 869.8168949915062,
        "timestamp": "2025-12-27T17:24:57.691748+00:00",
        "meta_object_name": "FENGYUN 1C DEB",
        "meta_object_id": "1999-025CXR",
        "meta_epoch": "2025-12-24T17:23:16.128672",
        "meta_mean_motion": 14.09166254,
        "meta_eccentricity": 0.00496208,
        "meta_inclination": 99.5324,
        "meta_ra_of_asc_node": 101.1678,
        "meta_arg_of_pericenter": 350.6597,
        "meta_mean_anomaly": 9.3643,
        "meta_ephemeris_type": 0,
        "meta_classification_type": "U",
        "meta_norad_cat_id": 32324,
        "meta_element_set_no": 999,
        "meta_rev_at_epoch": 64167,
        "meta_bstar": 0.00050694088,
        "meta_mean_motion_dot": 8.41e-06,
        "meta_mean_motion_ddot": 0,
        "tle_line1": "1 32324U 99025CXR 25358.72449223  .00000841  00000+0  50694-3 0  9994",
        "tle_line2": "2 32324  99.5324 101.1678 0049620 350.6597   9.3643 14.09166254641675"
      },
      "geometry": {
        "type": "Point",
        "coordinates": [
          -23.229264896407148,
          78.03075306631276
        ]
      }
    },
    {
      "type": "Feature",
      "properties": {
        "norad_id": 32326,
        "name": "FENGYUN 1C DEB",
        "group": "fengyun-1c-debris",
        "lat": -8.537381370323978,
        "lon": -69.34708381585158,
        "alt_km": 1083.4403504067568,
        "timestamp": "2025-12-27T17:24:57.691758+00:00",
        "meta_object_name": "FENGYUN 1C DEB",
        "meta_object_id": "1999-025CXT",
        "meta_epoch": "2025-12-25T00:34:20.838720",
        "meta_mean_motion": 13.69298824,
        "meta_eccentricity": 0.0386861,
        "meta_inclination": 98.4894,
        "meta_ra_of_asc_node": 286.9798,
        "meta_arg_of_pericenter": 106.5572,
        "meta_mean_anomaly": 257.8432,
        "meta_ephemeris_type": 0,
        "meta_classification_type": "U",
        "meta_norad_cat_id": 32326,
        "meta_element_set_no": 999,
        "meta_rev_at_epoch": 63350,
        "meta_bstar": 0.00054460155,
        "meta_mean_motion_dot": 7.67e-06,
        "meta_mean_motion_ddot": 0,
        "tle_line1": "1 32326U 99025CXT 25359.02385230  .00000767  00000+0  54460-3 0  9999",
        "tle_line2": "2 32326  98.4894 286.9798 0386861 106.5572 257.8432 13.69298824633507"
      },
      "geometry": {
        "type": "Point",
        "coordinates": [
          -69.34708381585158,
          -8.537381370323978
        ]
      }
    },
    {
      "type": "Feature",
      "properties": {
        "norad_id": 32332,
        "name": "FENGYUN 1C DEB",
        "group": "fengyun-1c-debris",
        "lat": 30.87093129677337,
        "lon": -118.78379280526529,
        "alt_km": 1010.5841373264557,
        "timestamp": "2025-12-27T17:24:57.691768+00:00",
        "meta_object_name": "FENGYUN 1C DEB",
        "meta_object_id": "1999-025CXZ",
        "meta_epoch": "2025-12-26T23:29:30.950016",
        "meta_mean_motion": 13.9721176,
        "meta_eccentricity": 0.0285742,
        "meta_inclination": 99.1304,
        "meta_ra_of_asc_node": 54.9566,
        "meta_arg_of_pericenter": 273.5817,
        "meta_mean_anomaly": 83.2711,
        "meta_ephemeris_type": 0,
        "meta_classification_type": "U",
        "meta_norad_cat_id": 32332,
        "meta_element_set_no": 999,
        "meta_rev_at_epoch": 93235,
        "meta_bstar": 0.0017233626,
        "meta_mean_motion_dot": 3.364e-05,
        "meta_mean_motion_ddot": 0,
        "tle_line1": "1 32332U 99025CXZ 25360.97883044  .00003364  00000+0  17234-2 0  9991",
        "tle_line2": "2 32332  99.1304  54.9566 0285742 273.5817  83.2711 13.97211760932358"
      },
      "geometry": {
        "type": "Point",
        "coordinates": [
          -118.78379280526529,
          30.87093129677337
        ]
      }
    },
    {
      "type": "Feature",
      "properties": {
        "norad_id": 32334,
        "name": "FENGYUN 1C DEB",
        "group": "fengyun-1c-debris",
        "lat": -44.369987403546396,
        "lon": -132.8299448659305,
        "alt_km": 847.2407964630702,
        "timestamp": "2025-12-27T17:24:57.691778+00:00",
        "meta_object_name": "FENGYUN 1C DEB",
        "meta_object_id": "1999-025CYB",
        "meta_epoch": "2025-12-27T02:38:09.738816",
        "meta_mean_motion": 14.01655559,
        "meta_eccentricity": 0.00673546,
        "meta_inclination": 99.25,
        "meta_ra_of_asc_node": 55.719,
        "meta_arg_of_pericenter": 241.0316,
        "meta_mean_anomaly": 118.4085,
        "meta_ephemeris_type": 0,
        "meta_classification_type": "U",
        "meta_norad_cat_id": 32334,
        "meta_element_set_no": 999,
        "meta_rev_at_epoch": 94141,
        "meta_bstar": 0.00035266757,
        "meta_mean_motion_dot": 4.99e-06,
        "meta_mean_motion_ddot": 0,
        "tle_line1": "1 32334U 99025CYB 25361.10983494  .00000499  00000+0  35267-3 0  9992",
        "tle_line2": "2 32334  99.2500  55.7190 0067354 241.0316 118.4085 14.01655559941418"
      },
      "geometry": {
        "type": "Point",
        "coordinates": [
          -132.8299448659305,
          -44.369987403546396
        ]
      }
    }
  ]
}